{
    "links": {
        "self": "http://www.neowsapp.com/rest/v1/neo/3795155?api_key=iIulBulltgU6a56xZRHN4H3l9WmuAYTsLGpBGhQ2"
    },
    "id": "3795155",
    "neo_reference_id": "3795155",
    "name": "(2017 YF8)",
    "designation": "2017 YF8",
    "nasa_jpl_url": "http://ssd.jpl.nasa.gov/sbdb.cgi?sstr=3795155",
    "absolute_magnitude_h": 25.8,
    "estimated_diameter": {
        "kilometers": {
            "estimated_diameter_min": 0.0183888672,
            "estimated_diameter_max": 0.0411187571
        },
        "meters": {
            "estimated_diameter_min": 18.388867207,
            "estimated_diameter_max": 41.1187571041
        },
        "miles": {
            "estimated_diameter_min": 0.0114263088,
            "estimated_diameter_max": 0.0255500032
        },
        "feet": {
            "estimated_diameter_min": 60.3309310875,
            "estimated_diameter_max": 134.9040630575
        }
    },
    "is_potentially_hazardous_asteroid": false,
    "close_approach_data": [
        {
            "close_approach_date": "1994-02-10",
            "close_approach_date_full": "1994-Feb-10 00:33",
            "epoch_date_close_approach": 760840380000,
            "relative_velocity": {
                "kilometers_per_second": "22.3302233463",
                "kilometers_per_hour": "80388.8040465594",
                "miles_per_hour": "49950.4766032635"
            },
            "miss_distance": {
                "astronomical": "0.4800623878",
                "lunar": "186.7442688542",
                "kilometers": "71816310.681993986",
                "miles": "44624586.1882335668"
            },
            "orbiting_body": "Earth"
        },
        {
            "close_approach_date": "2017-12-22",
            "close_approach_date_full": "2017-Dec-22 03:27",
            "epoch_date_close_approach": 1513913220000,
            "relative_velocity": {
                "kilometers_per_second": "7.4618201775",
                "kilometers_per_hour": "26862.5526388672",
                "miles_per_hour": "16691.3455549672"
            },
            "miss_distance": {
                "astronomical": "0.0149831973",
                "lunar": "5.8284637497",
                "kilometers": "2241454.401869751",
                "miles": "1392775.1814785238"
            },
            "orbiting_body": "Earth"
        }
    ],
    "orbital_data": {
        "orbit_id": "1",
        "orbit_determination_date": "2018-01-02 12:42:07",
        "first_observation_date": "2017-12-29",
        "last_observation_date": "2018-01-01",
        "data_arc_in_days": 3,
        "observations_used": 19,
        "orbit_uncertainty": "8",
        "minimum_orbit_intersection": ".00421026",
        "jupiter_tisserand_invariant": "3.765",
        "epoch_osculation": "2458117.5",
        "eccentricity": ".4950842826773478",
        "semi_major_axis": "1.917212778268415",
        "inclination": "4.620853888563011",
        "ascending_node_longitude": "98.60786574914357",
        "orbital_period": "969.6252116238968",
        "perihelion_distance": ".9680308651995516",
        "perihelion_argument": "338.4741674350541",
        "aphelion_distance": "2.866394691337278",
        "perihelion_time": "2458098.845454325895",
        "mean_anomaly": "6.926012609996671",
        "mean_motion": ".3712774747235416",
        "equinox": "J2000",
        "orbit_class": {
            "orbit_class_type": "APO",
            "orbit_class_description": "Near-Earth asteroid orbits which cross the Earth’s orbit similar to that of 1862 Apollo",
            "orbit_class_range": "a (semi-major axis) > 1.0 AU; q (perihelion) < 1.017 AU"
        }
    },
    "is_sentry_object": false
}